{
  "type": "FeatureCollection",
  "name": "SAR_Triage_Survivors",
  "crs": {
    "type": "name",
    "properties": {
      "name": "urn:ogc:def:crs:OGC:1.3:CRS84"
    }
  },
  "features": [
    {
      "type": "Feature",
      "geometry": {
        "type": "Point",
        "coordinates": [
          85.32479203122071,
          27.717322155120613
        ]
      },
      "properties": {
        "track_id": 7,
        "class_name": "human",
        "triage_score": 0.714,
        "urgency_level": "MODERATE_SEARCH",
        "urgency_color": "#f4a261",
        "confidence": 0.713,
        "status": "STATIONARY",
        "is_stationary": true,
        "thermal_delta_c": null,
        "error_radius_m": 2.66,
        "first_detected_ms": 20086.733333333334,
        "last_detected_ms": 26493.13333333333,
        "hits_count": 19017,
        "crop_bbox": [
          282.1,
          132.23,
          295.08,
          160.42
        ],
        "full_frame_path": "evidence/full_frames/track_7_full.jpg",
        "raw_crop_path": "evidence/raw/track_7_raw.jpg",
        "annotated_crop_path": "evidence/annotated/track_7_annotated.jpg"
      }
    },
    {
      "type": "Feature",
      "geometry": {
        "type": "Point",
        "coordinates": [
          85.3245324,
          27.7172496
        ]
      },
      "properties": {
        "track_id": 8,
        "class_name": "human",
        "triage_score": 0.481,
        "urgency_level": "LOW_PRIORITY",
        "urgency_color": "#e9c46a",
        "confidence": 0.287,
        "status": "STATIONARY",
        "is_stationary": true,
        "thermal_delta_c": null,
        "error_radius_m": 2.45,
        "first_detected_ms": 26426.4,
        "last_detected_ms": 26426.4,
        "hits_count": 3,
        "crop_bbox": [
          318.67,
          347.08,
          354.53,
          377.76
        ],
        "full_frame_path": "evidence/full_frames/track_8_full.jpg",
        "raw_crop_path": "evidence/raw/track_8_raw.jpg",
        "annotated_crop_path": "evidence/annotated/track_8_annotated.jpg"
      }
    },
    {
      "type": "Feature",
      "geometry": {
        "type": "Point",
        "coordinates": [
          85.3245896,
          27.7174187
        ]
      },
      "properties": {
        "track_id": 5,
        "class_name": "human",
        "triage_score": 0.472,
        "urgency_level": "LOW_PRIORITY",
        "urgency_color": "#e9c46a",
        "confidence": 0.207,
        "status": "STATIONARY",
        "is_stationary": true,
        "thermal_delta_c": null,
        "error_radius_m": 2.62,
        "first_detected_ms": 13747.066666666668,
        "last_detected_ms": 13747.066666666668,
        "hits_count": 4,
        "crop_bbox": [
          166.8,
          310.2,
          181.78,
          319.8
        ],
        "full_frame_path": "evidence/full_frames/track_5_full.jpg",
        "raw_crop_path": "evidence/raw/track_5_raw.jpg",
        "annotated_crop_path": "evidence/annotated/track_5_annotated.jpg"
      }
    },
    {
      "type": "Feature",
      "geometry": {
        "type": "Point",
        "coordinates": [
          85.324224,
          27.7175898
        ]
      },
      "properties": {
        "track_id": 2,
        "class_name": "human",
        "triage_score": 0.456,
        "urgency_level": "LOW_PRIORITY",
        "urgency_color": "#e9c46a",
        "confidence": 0.202,
        "status": "STATIONARY",
        "is_stationary": true,
        "thermal_delta_c": null,
        "error_radius_m": 2.83,
        "first_detected_ms": 1067.7333333333333,
        "last_detected_ms": 1067.7333333333333,
        "hits_count": 3,
        "crop_bbox": [
          26.33,
          217.31,
          37.12,
          227.17
        ],
        "full_frame_path": "evidence/full_frames/track_2_full.jpg",
        "raw_crop_path": "evidence/raw/track_2_raw.jpg",
        "annotated_crop_path": "evidence/annotated/track_2_annotated.jpg"
      }
    },
    {
      "type": "Feature",
      "geometry": {
        "type": "Point",
        "coordinates": [
          85.3247853771255,
          27.717213700954154
        ]
      },
      "properties": {
        "track_id": 3,
        "class_name": "human",
        "triage_score": 0.388,
        "urgency_level": "LOW_PRIORITY",
        "urgency_color": "#e9c46a",
        "confidence": 0.795,
        "status": "MOBILE",
        "is_stationary": false,
        "thermal_delta_c": null,
        "error_radius_m": 2.81,
        "first_detected_ms": 2802.8,
        "last_detected_ms": 26493.13333333333,
        "hits_count": 51149,
        "crop_bbox": [
          359.22,
          139.27,
          374.26,
          177.74
        ],
        "full_frame_path": "evidence/full_frames/track_3_full.jpg",
        "raw_crop_path": "evidence/raw/track_3_raw.jpg",
        "annotated_crop_path": "evidence/annotated/track_3_annotated.jpg"
      }
    },
    {
      "type": "Feature",
      "geometry": {
        "type": "Point",
        "coordinates": [
          85.32448905703177,
          27.71735016384728
        ]
      },
      "properties": {
        "track_id": 6,
        "class_name": "human",
        "triage_score": 0.341,
        "urgency_level": "LOW_PRIORITY",
        "urgency_color": "#e9c46a",
        "confidence": 0.638,
        "status": "MOBILE",
        "is_stationary": false,
        "thermal_delta_c": null,
        "error_radius_m": 2.57,
        "first_detected_ms": 17484.13333333333,
        "last_detected_ms": 26493.13333333333,
        "hits_count": 4275,
        "crop_bbox": [
          227.16,
          363.38,
          257.26,
          402.33
        ],
        "full_frame_path": "evidence/full_frames/track_6_full.jpg",
        "raw_crop_path": "evidence/raw/track_6_raw.jpg",
        "annotated_crop_path": "evidence/annotated/track_6_annotated.jpg"
      }
    },
    {
      "type": "Feature",
      "geometry": {
        "type": "Point",
        "coordinates": [
          85.32452237357907,
          27.716892088802997
        ]
      },
      "properties": {
        "track_id": 1,
        "class_name": "human",
        "triage_score": 0.287,
        "urgency_level": "LOW_PRIORITY",
        "urgency_color": "#e9c46a",
        "confidence": 0.456,
        "status": "MOBILE",
        "is_stationary": false,
        "thermal_delta_c": null,
        "error_radius_m": 2.88,
        "first_detected_ms": 333.6666666666667,
        "last_detected_ms": 1668.3333333333335,
        "hits_count": 207,
        "crop_bbox": [
          617.64,
          38.99,
          637.25,
          48.07
        ],
        "full_frame_path": "evidence/full_frames/track_1_full.jpg",
        "raw_crop_path": "evidence/raw/track_1_raw.jpg",
        "annotated_crop_path": "evidence/annotated/track_1_annotated.jpg"
      }
    },
    {
      "type": "Feature",
      "geometry": {
        "type": "Point",
        "coordinates": [
          85.32471863054059,
          27.716806093339244
        ]
      },
      "properties": {
        "track_id": 4,
        "class_name": "human",
        "triage_score": 0.25,
        "urgency_level": "LOW_PRIORITY",
        "urgency_color": "#e9c46a",
        "confidence": 0.334,
        "status": "MOBILE",
        "is_stationary": false,
        "thermal_delta_c": null,
        "error_radius_m": 2.95,
        "first_detected_ms": 3536.866666666667,
        "last_detected_ms": 4137.466666666666,
        "hits_count": 42,
        "crop_bbox": [
          671.64,
          35.68,
          691.87,
          45.15
        ],
        "full_frame_path": "evidence/full_frames/track_4_full.jpg",
        "raw_crop_path": "evidence/raw/track_4_raw.jpg",
        "annotated_crop_path": "evidence/annotated/track_4_annotated.jpg"
      }
    }
  ]
}